OBJECT_NAME,OBJECT_ID,EPOCH,MEAN_MOTION,ECCENTRICITY,INCLINATION,RA_OF_ASC_NODE,ARG_OF_PERICENTER,MEAN_ANOMALY,EPHEMERIS_TYPE,CLASSIFICATION_TYPE,NORAD_CAT_ID,ELEMENT_SET_NO,REV_AT_EPOCH,BSTAR,MEAN_MOTION_DOT,MEAN_MOTION_DDOT
LEMUR-2-ROUNDTRIPPER,2025-009DG,2026-07-19T18:13:27.833088,15.04270522,.0004479,97.7242,283.4009,55.9111,304.2540,0,U,62711,999,8252,.28156E-3,.3857E-4,0
LEMUR-2-MYNAMEISJEFF,2025-009DH,2026-07-19T18:11:19.524768,15.04261876,.000437,97.7289,283.8001,88.5252,271.6474,0,U,62712,999,8252,.28586E-3,.3916E-4,0
LEMUR-2-LEIA-PHILIP,2025-052AN,2026-07-19T16:20:12.028128,14.97392896,.0005043,97.6792,92.0799,110.2054,249.9711,0,U,63246,999,7353,.10245E-4,.62E-6,0
LEMUR-2-LIA-MARTIN,2025-052AQ,2026-07-19T06:32:27.764448,14.98043580,.00050463,97.6853,92.2046,79.9145,280.2647,0,U,63248,999,7348,.10888573E-3,.1229E-4,0
LEMUR-2-DELOITTE-1,2025-052BB,2026-07-19T20:31:05.289312,14.97804760,.0002532,97.6885,93.1078,58.0669,302.0799,0,U,63259,999,7358,.20637E-3,.2366E-4,0
LEMUR-2-EMERSONROSE,2025-052BD,2026-07-19T06:19:49.369440,14.99310415,.00024822,97.6885,93.1485,50.6470,309.4973,0,U,63261,999,7354,.18657293E-3,.222E-4,0
LEMUR-2-MARACHE-FRAN,2025-052BE,2026-07-19T16:24:46.489824,15.00330612,.0005734,97.6816,93.9341,234.6437,125.4251,0,U,63262,999,7363,.12728E-3,.1537E-4,0
LEMUR-2-THEFALCONER,2025-052BG,2026-07-19T16:27:18.332640,14.97573199,.000064,97.6815,92.5267,226.4007,133.7162,0,U,63264,999,7355,.98723E-4,.1095E-4,0
LEMUR-2-UNTITLED-SC,2025-061A,2026-07-19T21:06:31.967424,15.13663233,.0019631,97.5661,176.0110,147.4932,212.7513,0,U,63351,999,7253,.10358E-3,.1804E-4,0
LEMUR-2-ESPERANZA,2025-061B,2026-07-19T18:55:21.239328,15.13768965,.0019256,97.5667,176.0218,147.1716,213.0716,0,U,63352,999,7252,.99031E-4,.1726E-4,0
LEMUR-2-KREMPEL-BRO2,2025-061C,2026-07-19T17:45:38.979072,15.14195662,.0020387,97.5712,176.5485,140.2940,219.9788,0,U,63353,999,7253,.10091E-3,.1783E-4,0
LEMUR-2-THERMORAPTOR,2025-061D,2026-07-19T20:27:36.241920,15.14279673,.0020106,97.5719,176.7423,138.8908,221.3843,0,U,63354,999,7255,.10479E-3,.1859E-4,0
LEMUR-2-NEUROSPICY,2025-061E,2026-07-19T19:43:10.713792,15.14398406,.0017868,97.5647,176.3126,141.7851,218.4651,0,U,63355,999,7255,.1059E-3,.1883E-4,0
LEMUR-2-TILLINFINITY,2025-061F,2026-07-19T20:15:50.893056,15.14983518,.0019366,97.5631,176.6485,130.7938,229.4978,0,U,63356,999,7258,.10878E-3,.1971E-4,0
LEMUR-2-KREMPEL-BRO1,2025-061G,2026-07-19T21:18:46.711296,15.14789895,.0020022,97.5633,176.5989,132.0054,228.2886,0,U,63357,999,7258,.1047E-3,.1884E-4,0
LEMUR-2-LANGER2SPACE,2025-061H,2026-07-19T11:00:24.552864,15.14481364,.00177577,97.5636,175.9728,141.3528,218.8979,0,U,63358,999,7250,.1012503E-3,.1802E-4,0
LEMUR-2-BALTO,2025-052BH,2026-07-19T06:25:49.045728,15.00383313,.00049945,97.6919,93.5170,310.0792,49.9993,0,U,63395,999,7357,.17242798E-3,.2106E-4,0
LEMUR-2-KRISH,2025-135AK,2026-07-19T18:34:45.575040,14.96465771,.0001123,97.7764,315.4353,105.4516,254.6829,0,U,64561,999,5879,.17945E-3,.1978E-4,0
LEMUR-2-HUBBLE-4,2025-135AP,2026-07-19T18:19:24.436128,14.93692072,.0003022,97.7722,314.2938,151.4800,208.6586,0,U,64565,999,5873,.38783E-4,.354E-5,0
LEMUR-2-SEJONG-2,2025-135BL,2026-07-19T19:03:00.455328,14.96933373,.0004249,97.7709,315.6002,196.9042,163.2038,0,U,64586,999,5882,.21925E-3,.246E-4,0
LEMUR-2-HUBBLE-5,2025-135BT,2026-07-19T18:29:48.720192,14.94218974,.0004674,97.7742,314.9749,216.8397,143.2502,0,U,64840,999,5877,.39504E-4,.366E-5,0
LEMUR-2-KARENDARRELL,2025-135BU,2026-07-19T19:08:44.254752,15.00536376,.0012824,97.7722,316.9665,90.8640,269.4053,0,U,64841,999,5890,.31115E-3,.387E-4,0
LEMUR-2-LUCILLE-ROSE,2025-135BV,2026-07-19T18:30:34.753248,15.00519254,.0015374,97.7700,316.9745,175.4293,184.7074,0,U,65403,999,5352,.26077E-3,.3234E-4,0
LEMUR-2-AFFIE-WAUWIE,2025-248C,2026-07-19T16:24:05.543136,15.28373565,.0009377,45.3910,298.7582,275.3833,84.5986,0,U,66295,999,3956,.46425E-3,.12798E-3,0
OTTER SDM,2025-276N,2026-07-19T15:20:53.530080,15.20085065,.0004523,97.4197,273.5822,233.4016,126.6803,0,U,66678,999,3534,.1412E-3,.298E-4,0
LEMUR-2-STAS-GORBUK,2025-276W,2026-07-19T17:28:15.252384,15.19683379,.0003909,97.4230,273.7204,226.6135,133.4775,0,U,66686,999,3535,.12234E-3,.2543E-4,0
LEMUR-2-TEODOR,2025-276DG,2026-07-19T17:48:05.567904,15.21363802,.0002148,97.4133,274.0115,84.1917,275.9563,0,U,66768,999,3539,.12781E-3,.2795E-4,0
LEMUR-2-LAILA,2025-276DQ,2026-07-19T18:38:19.928256,15.21590757,.0002847,97.4159,274.1875,87.8612,272.2950,0,U,66776,999,3540,.12648E-3,.2784E-4,0
LEMUR-2-CELIJO-SB-PK,2025-276DW,2026-07-19T17:17:01.024800,15.00311679,.0006748,97.5183,270.4234,53.6288,306.5558,0,U,66781,999,2750,.23258E-3,.286E-4,0
LEMUR-2-FINNIAN,2025-276DX,2026-07-19T18:08:46.804992,15.00644953,.0007081,97.5356,270.7347,342.5290,17.5690,0,U,66782,999,2488,.10689E-3,.1294E-4,0
